ONEWEB-0228             
1 48780U 21045P   24195.47944831  .00000371  00000+0  95700-3 0  9994
2 48780  87.9016  39.2154 0001824  81.8869 278.2468 13.15069421152938
